{"type":"FeatureCollection","features":[{"type":"Feature","properties":{"name":"المدينة المنورة","code":"0300","centroid_lat":24.52377,"centroid_lon":39.6353,"existing_high":163,"existing_medium":134,"existing_low":122,"existing_total":419},"geometry":{"type":"Polygon","coordinates":[[[38.74034377150686,25.459876741661134],[38.81378496748787,25.469391698585973],[38.857770357888676,25.461301208125803],[38.911915646861736,25.443351116802823],[39.04128670241344,25.384087523192026],[39.11164451240862,25.174626274180014],[39.16580262892886,25.161205694330068],[39.233669383832215,25.127066214056416],[39.25576560584538,25.096347989488326],[39.27504906452121,25.078874000780676],[39.28847186971945,25.05201926791372],[39.28111381316468,25.01388831099587],[39.3125119121082,25.012335469229654],[39.334916288669405,24.99947406812921],[39.374579276583525,24.96337709771788],[39.421104879237525,24.950418232407557],[39.45987295297303,24.928442072894928],[39.5018503563201,24.878137298780278],[39.527436793262666,24.859653619918976],[39.538885741823684,24.827501637066927],[39.69723154682547,24.880994691847636],[39.72777157494299,24.89680446297507],[39.696940800736556,24.914167397371273],[39.75483922964145,25.0488227070354],[39.77028830268941,25.05340471732681],[39.80317818565351,25.050219004496373],[39.822734391725874,25.066662086322314],[39.829156582487435,25.099422632989516],[39.822092949489715,25.11347133457744],[39.83771088627711,25.133475449198322],[39.848408116800584,25.162006657171855],[39.8937470778058,25.169521711522442],[39.932039793169515,25.211726386023887],[39.98882639581444,25.192803287589314],[40.02200101531697,25.173012623419112],[40.179939374048224,24.991009863501237],[40.19333536064806,24.949443729028307],[40.19331145882572,24.789881696237742],[40.19783483336819,24.757427051281837],[40.266080678620845,24.658271784920142],[40.285350142201786,24.638731700940262],[40.29451109394839,24.63689612428678],[40.33362815818485,24.64998918337085],[40.3634625355969,24.649926227280524],[40.39527520083831,24.6334239599256],[40.48458882110429,24.567589370793957],[40.49201603405068,24.549276111025407],[40.49303265115627,24.51723524976095],[40.489565098761574,24.469452891575816],[40.478677455586535,24.413234722917352],[40.478614176356785,24.351666899603675],[40.69713420409317,24.210715465359918],[40.73166784270212,24.161667813415363],[40.69360243636287,24.09136266589634],[40.624367891957434,24.038489251505514],[40.60945750423911,24.004667298520456],[40.6059492331724,23.981599918025506],[40.56453691588065,23.955526406046953],[40.48613267370826,23.92674408450411],[40.454448818693734,23.90999958805929],[40.37514481121819,23.856304266138295],[40.30230232632797,23.79482288082045],[40.27968873060959,23.786811518203734],[40.05416712027759,23.741107827915684],[40.02051287701358,23.86733511155869],[40.02117182616562,23.89680016433474],[40.01379350070506,23.920709061328505],[39.98611037508268,23.968610119549496],[39.92666453857665,23.937151478613636],[39.833561211775056,23.93490275829248],[39.75855171642176,23.916365878213202],[39.669940751690206,23.911593013217782],[39.588612500590386,23.926663461309655],[39.57345682145419,23.90256250779926],[39.48842612625506,23.864460469255356],[39.42584648439203,23.846840725888143],[39.312939701392835,23.832878013692614],[39.29073020008512,23.873109771191913],[39.26168031352201,23.906022133233748],[39.24792384266493,23.938628176902405],[39.23610478679838,24.036348280579496],[39.22169104616116,24.06577253240739],[39.20938233650215,24.07884916376709],[39.21311756431329,24.169699544201745],[39.18376136222576,24.17838976514938],[39.13994213334031,24.147366742740235],[39.098166251589596,24.154954317485185],[39.07375327467731,24.202495184655525],[39.011857151274555,24.292022476113704],[39.00207496817087,24.283457684559945],[38.90878581955544,24.310002366841324],[38.916749995961254,24.333638886830748],[38.88160979299288,24.370353187474347],[38.862063036124546,24.474372405618634],[38.866139892116685,24.49787907432081],[38.889938841261674,24.530771749200046],[38.85552939276787,24.546660526132104],[38.8429679217634,24.581395649156846],[38.8313672493602,24.66201910091062],[38.80919431430354,24.712451877951093],[38.78519803011021,24.746542976167486],[38.782125637439,24.771177166745954],[38.78629480367301,24.844454870884785],[38.78058237369846,24.90288111797044],[38.725440431236784,25.099159727119286],[38.72071808265765,25.111776060764047],[38.68037655504468,25.139506023018633],[38.66144624566129,25.16363019127739],[38.63758007177051,25.179580090597682],[38.632632144996684,25.188462451538282],[38.65210592801144,25.27013482833176],[38.70069923330178,25.31014712839374],[38.72370139414424,25.350542118215397],[38.69724479663375,25.374045975973175],[38.68236924839939,25.38120354857721],[38.67024534881353,25.406620053881582],[38.650166605386204,25.430867634747777],[38.62123065638825,25.448292219900477],[38.65210425780177,25.476544644958775],[38.74034377150686,25.459876741661134]]]}},{"type":"Feature","properties":{"name":"الحناكية","code":"0306","centroid_lat":24.85733,"centroid_lon":41.07883,"existing_high":0,"existing_medium":0,"existing_low":0,"existing_total":0},"geometry":{"type":"Polygon","coordinates":[[[40.69360243636287,24.09136266589634],[40.73166784270212,24.161667813415363],[40.69713420409317,24.210715465359918],[40.478614176356785,24.351666899603675],[40.478677455586535,24.413234722917352],[40.489565098761574,24.469452891575816],[40.49303265115627,24.51723524976095],[40.49201603405068,24.549276111025407],[40.48458882110429,24.567589370793957],[40.39527520083831,24.6334239599256],[40.3634625355969,24.649926227280524],[40.33362815818485,24.64998918337085],[40.29451109394839,24.63689612428678],[40.285350142201786,24.638731700940262],[40.266080678620845,24.658271784920142],[40.19783483336819,24.757427051281837],[40.19331145882572,24.789881696237742],[40.19333536064806,24.949443729028307],[40.173617495542686,25.002053029748296],[40.02200101531697,25.173012623419112],[39.98882639581444,25.192803287589314],[39.93583611512801,25.211941110184718],[40.19722687067443,25.490833871326455],[40.35609036525195,25.349953356221416],[40.429565889344154,25.274935678031326],[40.52452391243023,25.341549393107943],[40.62069340255972,25.347603506468918],[40.769094640895005,25.41894531138873],[40.96055788956714,25.526668545467448],[41.30916760351377,25.543330834697162],[41.364167710031936,25.495276181212308],[41.44455460206348,25.405114508733977],[41.48817750271094,25.342223024744087],[41.49866837204737,25.31774006405092],[41.602161776599424,25.20946074488034],[41.73472669337365,25.20055589421995],[41.86611201779397,25.230000766062748],[41.95194391530429,25.177500286530375],[41.95844521787941,25.149590457874478],[42.01715113962218,25.015706962046693],[42.09195760106205,24.87666348675972],[42.184523225166735,24.665028935133705],[42.18023280548392,24.651811630345325],[42.18131628374624,24.629074661419963],[42.195040250723316,24.593489587942948],[42.186128322276346,24.551581034818167],[42.16219379344699,24.48760510266757],[42.112838378455955,24.49534698443513],[41.9869971846728,24.54532326807117],[41.96278876386426,24.522706724964518],[41.949041820072694,24.517264750373446],[41.856105894441086,24.516690480717607],[41.77636975321417,24.500275731878695],[41.36639146438562,24.25666995092353],[41.283721995542194,24.193374879525233],[41.277285911531095,24.1828907754753],[41.27519395049711,24.15755003227026],[41.2628733535044,24.134300643846867],[41.24037075359235,24.12275973071178],[41.23183425677788,24.110410044345436],[41.205093328452506,24.103009441307293],[41.182697951311425,24.103011184080035],[41.13884518356615,24.124571082509195],[41.098834183409224,24.123598419069957],[41.03866100253235,24.140006343623636],[40.980550922026524,24.186112522444944],[40.94118325486051,24.190409245531413],[40.861559125752564,24.1811349453415],[40.820325438436484,24.153305793940902],[40.781912715705154,24.114791972280216],[40.761604688714556,24.105407075853662],[40.69360243636287,24.09136266589634]]]}},{"type":"Feature","properties":{"name":"العلا","code":"0302","centroid_lat":26.56567,"centroid_lon":38.00063,"existing_high":0,"existing_medium":0,"existing_low":0,"existing_total":0},"geometry":{"type":"Polygon","coordinates":[[[38.6157357410207,26.887935514982907],[38.641867766417796,26.823199058068283],[38.97861110186911,26.74555555244517],[38.9775846200584,26.686062607094577],[38.95880293719366,26.655403101264056],[38.95644337386846,26.605070906020927],[38.93166570002224,26.475003373303206],[38.85778021078031,26.34666916673172],[38.76954858065318,26.321060691455312],[38.68320046204155,26.229590198306337],[38.62416573002501,26.11527352743527],[38.654248207826434,26.071101636433102],[38.67791543855802,26.023536957047224],[38.6886311592052,25.98975191627767],[38.723611779056355,25.941666535150357],[38.70121257217258,25.94514561079531],[38.678832453459584,25.95902213530481],[38.6500386060253,25.96847033557211],[38.543045808574036,25.95875314591501],[38.540833341607694,25.94444441277443],[38.52922400940021,25.92338302473579],[38.45664852737524,25.867290726739615],[38.44850717690514,25.846805508535027],[38.30537684244039,25.734491003824655],[38.24482222062887,25.785362232462703],[37.90449992578671,25.799166626751923],[37.91766664080651,25.76722224783498],[37.75732318361013,25.710318277303013],[37.486758908537006,25.962887633126634],[37.44548522059475,26.005911700732046],[37.3937128074506,26.08131252698627],[37.3642001228545,26.136055517550826],[37.36544368498848,26.142757320846897],[37.43176389445686,26.23674882063233],[37.40727137833006,26.268536499663856],[37.35653955172207,26.351557043770278],[37.32971337929915,26.37166567984185],[37.21793742499802,26.431115489867107],[37.169732221552096,26.481552554145818],[37.15174047634212,26.520161373301324],[37.091007368376175,26.696082389363028],[37.07443787539205,26.772077430701135],[37.07485642322963,26.833305855523715],[37.22980544530906,26.817227479271903],[37.256022712739,26.833932744728994],[37.391325525834944,26.888149094205644],[37.42056451686022,26.88149129025339],[37.43948702281138,26.86648058245768],[37.456616024199995,26.866189717917372],[37.46193742537153,26.877797812908327],[37.48056551365457,26.880993144650702],[37.50410107312048,26.905592840949627],[37.557290697175915,26.918429781100954],[37.574215411227506,26.927199157627182],[37.56526143689621,26.97100246642076],[37.54411005752827,27.033576524970506],[37.45861304939678,27.162781929052112],[37.45373052532525,27.31667019583945],[37.49967056182613,27.495921901127087],[37.98833559482888,27.49638729075348],[38.200279379011484,27.224166806171176],[38.31497639007353,27.137455395275147],[38.32058065984702,27.046975990503825],[38.45749414038387,26.952535827949983],[38.50674466624991,26.949322460467716],[38.60509896099873,26.92959874635209],[38.6157357410207,26.887935514982907]]]}},{"type":"Feature","properties":{"name":"العيص","code":"0307","centroid_lat":25.33604,"centroid_lon":38.28172,"existing_high":0,"existing_medium":0,"existing_low":0,"existing_total":0},"geometry":{"type":"Polygon","coordinates":[[[38.8230995767866,25.74325477097617],[38.825400480531506,25.72761181970594],[38.859064501604934,25.684757183862125],[38.823597670946825,25.60412372973081],[38.8221881116996,25.559249580943668],[38.794749685992734,25.52700088854449],[38.79599299977664,25.46890975361988],[38.744240701335045,25.45958563706692],[38.65210425780177,25.476544644958775],[38.62123065638825,25.448292219900477],[38.650166605386204,25.430867634747777],[38.67024534881353,25.406620053881582],[38.68236924839939,25.38120354857721],[38.69724479663375,25.374045975973175],[38.72370139414424,25.350542118215397],[38.70069923330178,25.31014712839374],[38.65210592801144,25.27013482833176],[38.632632144996684,25.188462451538282],[38.63758007177051,25.179580090597682],[38.66144624566129,25.16363019127739],[38.68037655504468,25.139506023018633],[38.72071808265765,25.111776060764047],[38.725440431236784,25.099159727119286],[38.78058237369846,24.90288111797044],[38.78629480367301,24.844454870884785],[38.78219130713335,24.77210612510575],[38.72335941815462,24.812361835077578],[38.691478767036,24.817002528652225],[38.67994773489944,24.822412721173954],[38.67229438504274,24.833393371746947],[38.6440432952619,24.844024383309876],[38.638077078119494,24.833395441101462],[38.600902194575255,24.818909704617827],[38.592422014639794,24.804707710758635],[38.581647036168,24.798100730742885],[38.52770267675852,24.783700713938575],[38.49136709524767,24.78758020334464],[38.3744240733907,24.718251679005338],[38.338045781946555,24.72238035801317],[38.26439714702881,24.74108806331134],[38.1645983919708,24.75000537978934],[38.13089553196228,24.762502878345742],[38.11014998902548,24.776829541518385],[38.0787041229542,24.826151486758604],[38.010773156846525,24.88107948696996],[37.9995430699029,24.886524124805884],[37.97837948936991,24.886712461010656],[37.87138727534884,24.925617176694015],[37.85137452076026,24.987032558116617],[37.7874966933216,25.133966502437506],[37.78011743751501,25.16727540112601],[37.77661529767424,25.222002363877845],[37.70064473196276,25.32109532328123],[37.631804118389766,25.426179120723862],[37.63159945202427,25.493767852352413],[37.70432030815559,25.60470861036828],[37.80839387721883,25.622365005651552],[37.8429211380419,25.646020353994537],[37.80696619303307,25.66473359911544],[37.75732318361013,25.710318277303013],[37.91766664080651,25.76722224783498],[37.90449992578671,25.799166626751923],[38.24482222062887,25.785362232462703],[38.30537684244039,25.734491003824655],[38.44850717690514,25.846805508535027],[38.45664852737524,25.867290726739615],[38.52922400940021,25.92338302473579],[38.540833341607694,25.94444441277443],[38.543045808574036,25.95875314591501],[38.63626719820549,25.968191548089628],[38.664177669042395,25.96432649697358],[38.70121257217258,25.94514561079531],[38.723611779056355,25.941666535150357],[38.75137068299891,25.908973316333945],[38.75793380321415,25.885624571238793],[38.78469755661194,25.832778538784584],[38.80887754801874,25.801376006633088],[38.83240308296916,25.78039454801665],[38.83125118774308,25.758307140261323],[38.8230995767866,25.74325477097617]]]}},{"type":"Feature","properties":{"name":"المهد","code":"0303","centroid_lat":23.55308,"centroid_lon":40.97759,"existing_high":0,"existing_medium":0,"existing_low":0,"existing_total":0},"geometry":{"type":"Polygon","coordinates":[[[41.9869971846728,24.54532326807117],[42.12029313721611,24.49316893549605],[42.16219379344699,24.48760510266757],[42.15098692884967,24.474973815908637],[42.11311134979743,24.455276493189324],[42.10578385955453,24.4450849612887],[42.100192149918215,24.42081354748908],[42.1140901874832,24.311936608399197],[42.1320964727747,24.240135493616954],[42.127599601357986,24.21909058025356],[42.10397586551137,24.17298491034624],[42.110816960159205,24.100721761765183],[42.13399365689497,24.044708890062697],[42.126428656142636,23.9824251526773],[42.13734167395742,23.963913880121986],[42.13397214051447,23.851499992900905],[42.07124045523857,23.826270656087218],[42.00210290219034,23.83509302705911],[41.994806160776406,23.808029819526546],[41.92765203202339,23.772239776925204],[41.674646554995306,23.67495217231497],[41.48862924422323,23.658347000440912],[41.42107516619411,23.549968600711182],[41.404927263395564,23.49242683524298],[41.401401071650724,23.44779541448291],[41.36962695319038,23.38191602042074],[41.31674402376786,23.317804709995688],[41.32583665606304,23.235001073508926],[41.31944987687912,23.20083909425298],[41.331204243501524,23.15102805229109],[41.341505141508684,23.135387023333607],[41.34083693714844,23.124167165819994],[41.233498813818905,23.03574612681844],[41.112002947608616,22.947146464643442],[41.06104974714731,22.894249070226106],[40.984359022831484,22.829415765550817],[40.90058833650271,22.797287117552074],[40.87395464996851,22.74864322583673],[40.860219823907755,22.73818470999756],[40.82926658993391,22.73194083725485],[40.73394155774402,22.732733176824063],[40.71180139838803,22.683441459765046],[40.70872882071937,22.665683642416834],[40.67235871039235,22.619422599006615],[40.64052312306984,22.562049564302786],[40.62112502796276,22.562577667419855],[40.59200109670835,22.575960537033062],[40.56525520379056,22.579643781438964],[40.56149434965912,22.611897309627643],[40.5444859491679,22.61819219258599],[40.52556035184264,22.61303153120216],[40.4376067811641,22.56321968988811],[40.1853579651689,22.51384201962757],[40.152065129994966,22.51265641457585],[40.11678183265897,22.51861396303434],[40.07139679917805,22.5431857317677],[40.0897146678586,22.58650404430528],[40.09260995602039,22.618722499950415],[40.077335105360156,22.66819527265196],[40.06172090111928,22.695079591589533],[40.05244039760759,22.735850001705263],[40.06055305292385,22.805003828303693],[40.07920458019748,22.805026674839166],[40.13500769033329,22.859165459165744],[40.13283119479266,22.90969758764834],[40.15878762076054,22.911190026934555],[40.17754872317232,22.920330128731834],[40.19161346285299,22.920375476181245],[40.18562677107644,22.986749878022135],[40.19021283358614,23.027645951514835],[40.15390572607577,23.099592749410768],[40.102433838165396,23.132722962748304],[40.03265821672474,23.15503735790919],[40.05547461117413,23.163815206451883],[40.07976738410972,23.184157358483276],[40.07821848713114,23.242385036423546],[40.067976974518615,23.30716121630462],[40.074158906346575,23.344899723610908],[40.13861009069191,23.455003850327504],[40.13083814664368,23.538892324688902],[40.0747831558046,23.61373495769257],[40.00306036169359,23.673059974979978],[40.02334175222812,23.705230832057318],[40.05416712027759,23.741107827915684],[40.27968873060959,23.786811518203734],[40.30230232632797,23.79482288082045],[40.37514481121819,23.856304266138295],[40.454448818693734,23.90999958805929],[40.48613267370826,23.92674408450411],[40.56453691588065,23.955526406046953],[40.6059492331724,23.981599918025506],[40.60945750423911,24.004667298520456],[40.624367891957434,24.038489251505514],[40.68859627084861,24.08941001838632],[40.7307109576175,24.101753547118626],[40.761604688714556,24.105407075853662],[40.781912715705154,24.114791972280216],[40.820325438436484,24.153305793940902],[40.861559125752564,24.1811349453415],[40.94118325486051,24.190409245531413],[40.980550922026524,24.186112522444944],[41.03866100253235,24.140006343623636],[41.098834183409224,24.123598419069957],[41.13884518356615,24.124571082509195],[41.19195273763162,24.100272356243597],[41.23183425677788,24.110410044345436],[41.24037075359235,24.12275973071178],[41.2628733535044,24.134300643846867],[41.26910694704504,24.142852301425062],[41.27519395049711,24.15755003227026],[41.277285911531095,24.1828907754753],[41.283721995542194,24.193374879525233],[41.36639146438562,24.25666995092353],[41.77636975321417,24.500275731878695],[41.856105894441086,24.516690480717607],[41.949041820072694,24.517264750373446],[41.96278876386426,24.522706724964518],[41.9869971846728,24.54532326807117]]]}},{"type":"Feature","properties":{"name":"بدر","code":"0304","centroid_lat":23.82124,"centroid_lon":38.92092,"existing_high":4,"existing_medium":9,"existing_low":4,"existing_total":17},"geometry":{"type":"Polygon","coordinates":[[[38.90878581955544,24.310002366841324],[39.00207496817087,24.283457684559945],[39.011857151274555,24.292022476113704],[39.07375327467731,24.202495184655525],[39.098166251589596,24.154954317485185],[39.13994213334031,24.147366742740235],[39.18376136222576,24.17838976514938],[39.21311756431329,24.169699544201745],[39.20938233650215,24.07884916376709],[39.22169104616116,24.06577253240739],[39.23610478679838,24.036348280579496],[39.24792384266493,23.938628176902405],[39.26168031352201,23.906022133233748],[39.29073020008512,23.873109771191913],[39.312939701392835,23.832878013692614],[39.31672085474367,23.796920298696712],[39.33553620996798,23.72582152956384],[39.350546733908885,23.695022807326676],[39.35552676292499,23.666168551697666],[39.40341655538799,23.58117029525625],[39.443634115034264,23.53773777050649],[39.31950004343456,23.476166657878093],[39.25077777876258,23.463499998323236],[39.08824190698976,23.51055288149387],[39.078318356896965,23.39693859759879],[39.06570832500874,23.343416421016514],[39.02378116801822,23.35729202541423],[38.98155508872825,23.35171200368432],[38.86000982700831,23.370827662682753],[38.80117860954224,23.389733411448386],[38.78305171050522,23.41305769405895],[38.67112491961832,23.39946861432314],[38.663544082472285,23.43222182342171],[38.657759492644814,23.42991176477639],[38.659939191822026,23.420105687664137],[38.65149883713755,23.429525389251403],[38.654477107492944,23.447688997626027],[38.64730981656299,23.455157383997953],[38.64908422311056,23.446281949990922],[38.641837475971606,23.46166473022639],[38.6449622267369,23.48003143023936],[38.639220352679075,23.48616542244588],[38.637879940165135,23.507682621064852],[38.62174921896682,23.517951683700055],[38.61856461415757,23.538468902099158],[38.61182337021933,23.53938358231467],[38.614463213736606,23.53535416766103],[38.599818494889384,23.54276827091544],[38.60013152575543,23.562511266138724],[38.60698958465821,23.568054977909718],[38.60535716768388,23.57301823737975],[38.59267822963034,23.575345002789284],[38.58793313111181,23.562355242577844],[38.57965714247761,23.55798656658393],[38.5637077911551,23.57135460915453],[38.55587663793469,23.563691947358013],[38.55572270005923,23.54934809688054],[38.56727687567207,23.541755960020108],[38.56258268802892,23.534850610145536],[38.57057720731169,23.54226188887165],[38.58318527923741,23.54012290977938],[38.594324674480816,23.533384281473456],[38.578607052951114,23.538868749191337],[38.56610489914885,23.529272108767778],[38.543895339017936,23.541316653845417],[38.547193921638,23.57700894703513],[38.54069096220476,23.5861043195914],[38.54293913392532,23.59871559097691],[38.51706289973938,23.624817688097227],[38.52989595947706,23.61877213182134],[38.52858071403906,23.628330279599083],[38.539084560285325,23.63270821694252],[38.52983079880482,23.63702690766517],[38.52235438047721,23.634582493108734],[38.509072371131836,23.64835971753592],[38.56203884754013,23.71308260175528],[38.625808953804764,23.744003974840446],[38.57841931498398,23.819386883783906],[38.56000757282179,23.868015010531813],[38.481942098861786,24.03130807452557],[38.44724397213864,24.132264901424083],[38.51157702990907,24.158085167134086],[38.53702700974011,24.161222002800944],[38.5670887032342,24.155971948328528],[38.64820972575698,24.131596267233142],[38.67980559835094,24.115787337377927],[38.68881065843787,24.116545971206694],[38.69913488556221,24.126338527358637],[38.689653555874365,24.164564576438174],[38.713575287311436,24.194655530267184],[38.71229309833576,24.208506156381617],[38.72037262596583,24.2300751925976],[38.73606485729269,24.24280594749865],[38.79105622256752,24.329690239114214],[38.79752915251885,24.353921466694235],[38.85424081426773,24.38029031937605],[38.87776460699569,24.398852186246543],[38.88160979299288,24.370353187474347],[38.916749995961254,24.333638886830748],[38.90878581955544,24.310002366841324]]]}},{"type":"Feature","properties":{"name":"خيبر","code":"0305","centroid_lat":25.84715,"centroid_lon":39.39729,"existing_high":3,"existing_medium":0,"existing_low":0,"existing_total":3},"geometry":{"type":"Polygon","coordinates":[[[40.19722687067443,25.490833871326455],[39.89869475888771,25.173822646162762],[39.88328741901722,25.166361461532293],[39.848408116800584,25.162006657171855],[39.83771088627711,25.133475449198322],[39.82301459490882,25.116770477819205],[39.82908625405868,25.094958149263835],[39.827181462343034,25.07508350437285],[39.81781118856616,25.060851765482184],[39.80317818565351,25.050219004496373],[39.77028830268941,25.05340471732681],[39.75483922964145,25.0488227070354],[39.696940800736556,24.914167397371273],[39.72777157494299,24.89680446297507],[39.69723154682547,24.880994691847636],[39.538885741823684,24.827501637066927],[39.527436793262666,24.859653619918976],[39.5018503563201,24.878137298780278],[39.45987295297303,24.928442072894928],[39.421104879237525,24.950418232407557],[39.374579276583525,24.96337709771788],[39.334916288669405,24.99947406812921],[39.3125119121082,25.012335469229654],[39.28111381316468,25.01388831099587],[39.28847186971945,25.05201926791372],[39.27504906452121,25.078874000780676],[39.25576560584538,25.096347989488326],[39.233669383832215,25.127066214056416],[39.16580262892886,25.161205694330068],[39.11164451240862,25.174626274180014],[39.04128670241344,25.384087523192026],[38.88673722546041,25.45255549816472],[38.82690148258084,25.467811939201404],[38.795993165766724,25.46881134145359],[38.794749685992734,25.52700088854449],[38.8221881116996,25.559249580943668],[38.823597670946825,25.60412372973081],[38.859064501604934,25.684757183862125],[38.825400480531506,25.72761181970594],[38.8230995767866,25.74325477097617],[38.83125118774308,25.758307140261323],[38.83240308296916,25.78039454801665],[38.80887754801874,25.801376006633088],[38.78469755661194,25.832778538784584],[38.75793380321415,25.885624571238793],[38.755088193512954,25.903214666524658],[38.6886311592052,25.98975191627767],[38.67791543855802,26.023536957047224],[38.654248207826434,26.071101636433102],[38.62416573002501,26.11527352743527],[38.68320046204155,26.229590198306337],[38.76954858065318,26.321060691455312],[38.85778021078031,26.34666916673172],[38.93166570002224,26.475003373303206],[38.95644337386846,26.605070906020927],[38.95880293719366,26.655403101264056],[38.9775846200584,26.686062607094577],[38.97861110186911,26.74555555244517],[39.10644271483864,26.78928873045521],[39.13410110046815,26.812298263617937],[39.51863405155257,26.64564251083732],[39.70888779005472,26.574996576860723],[39.94924035383379,26.161153667612563],[39.944815408196874,25.742085166339212],[40.0992382674871,25.577630864280223],[40.19722687067443,25.490833871326455]]]}},{"type":"Feature","properties":{"name":"وادي الفرع","code":"0308","centroid_lat":23.36958,"centroid_lon":39.68122,"existing_high":0,"existing_medium":0,"existing_low":0,"existing_total":0},"geometry":{"type":"Polygon","coordinates":[[[39.98611037508268,23.968610119549496],[40.02117182616562,23.89680016433474],[40.02051287701358,23.86733511155869],[40.05416712027759,23.741107827915684],[40.02334175222812,23.705230832057318],[40.00306036169359,23.673059974979978],[40.0747831558046,23.61373495769257],[40.13083814664368,23.538892324688902],[40.137330264232524,23.489630985607523],[40.13861009069191,23.455003850327504],[40.08047705795936,23.35985596324965],[40.06956732880344,23.322700308860835],[40.07976738410972,23.184157358483276],[40.05547461117413,23.163815206451883],[40.03265821672474,23.15503735790919],[40.102433838165396,23.132722962748304],[40.15390572607577,23.099592749410768],[40.19021283358614,23.027645951514835],[40.18562677107644,22.986749878022135],[40.19161346285299,22.920375476181245],[40.17754872317232,22.920330128731834],[40.15878762076054,22.911190026934555],[40.13283119479266,22.90969758764834],[40.13500769033329,22.859165459165744],[40.07920458019748,22.805026674839166],[39.85119547844671,22.789166108848537],[39.758706134401955,22.78949138818966],[39.74917297211237,22.79489038073419],[39.74927214322808,22.80220210143003],[39.8086867434207,22.881127903436184],[39.81857354247274,22.902004961039456],[39.79000306902999,23.05277997824089],[39.770332162080294,23.052286598098185],[39.71554579266666,23.066631386527014],[39.66280614392504,23.05873942768321],[39.59080484222569,23.03124723463842],[39.56331507353541,23.027461156390345],[39.49126494785576,22.980329701300967],[39.462620326991,22.955598947581286],[39.39158225357273,22.935760462948657],[39.252997457264925,22.959653707802577],[39.18555808234529,22.986374556111343],[39.13591770221671,23.0000924254562],[39.13594571481325,23.028048648744765],[39.12416308126759,23.0472252704877],[39.14007940682793,23.07575247923736],[39.1459427281112,23.09993873555913],[39.13916399667924,23.15889163718281],[39.16599146586558,23.209187740603614],[39.189146309287416,23.293555004414994],[39.18238595937384,23.307342233878835],[39.17404747552146,23.312168515590034],[39.1798647258738,23.325129687027964],[39.17290557716943,23.347879604944826],[39.16307348027376,23.357989811302538],[39.14570209568276,23.321752912469577],[39.1364395921502,23.315951282224468],[39.06570832500874,23.343416421016514],[39.078318356896965,23.39693859759879],[39.08824190698976,23.51055288149387],[39.25077777876258,23.463499998323236],[39.31950004343456,23.476166657878093],[39.443634115034264,23.53773777050649],[39.40341655538799,23.58117029525625],[39.35552676292499,23.666168551697666],[39.350546733908885,23.695022807326676],[39.33553620996798,23.72582152956384],[39.31672085474367,23.796920298696712],[39.312939701392835,23.832878013692614],[39.42584648439203,23.846840725888143],[39.48842612625506,23.864460469255356],[39.57345682145419,23.90256250779926],[39.588612500590386,23.926663461309655],[39.669940751690206,23.911593013217782],[39.75855171642176,23.916365878213202],[39.833561211775056,23.93490275829248],[39.92666453857665,23.937151478613636],[39.98611037508268,23.968610119549496]]]}},{"type":"Feature","properties":{"name":"ينبع","code":"0301","centroid_lat":24.4196,"centroid_lon":38.18783,"existing_high":31,"existing_medium":68,"existing_low":49,"existing_total":148},"geometry":{"type":"Polygon","coordinates":[[[38.12043851540237,24.769159392285708],[38.1645983919708,24.75000537978934],[38.26439714702881,24.74108806331134],[38.338045781946555,24.72238035801317],[38.3744240733907,24.718251679005338],[38.4808410062072,24.78314022011795],[38.497892054363724,24.78902127392839],[38.52770267675852,24.783700713938575],[38.574336551941265,24.79478648324295],[38.592422014639794,24.804707710758635],[38.600902194575255,24.818909704617827],[38.638077078119494,24.833395441101462],[38.646665716598484,24.843505098984906],[38.66165165205734,24.834279008974132],[38.67229438504274,24.833393371746947],[38.67994773489944,24.822412721173954],[38.691478767036,24.817002528652225],[38.72335941815462,24.812361835077578],[38.78360943219967,24.771048660799458],[38.78733299109777,24.740822025016627],[38.80919431430354,24.712451877951093],[38.8313672493602,24.66201910091062],[38.8429679217634,24.581395649156846],[38.85552939276787,24.546660526132104],[38.889938841261674,24.530771749200046],[38.866139892116685,24.49787907432081],[38.862063036124546,24.474372405618634],[38.87776460699569,24.398852186246543],[38.85424081426773,24.38029031937605],[38.79752915251885,24.353921466694235],[38.79105622256752,24.329690239114214],[38.73606485729269,24.24280594749865],[38.72037262596583,24.2300751925976],[38.71229309833576,24.208506156381617],[38.713575287311436,24.194655530267184],[38.689653555874365,24.164564576438174],[38.69913488556221,24.126338527358637],[38.69334486411079,24.119654764446658],[38.67980559835094,24.115787337377927],[38.644017205588774,24.132943607082467],[38.53702700974011,24.161222002800944],[38.51157702990907,24.158085167134086],[38.44724397213864,24.132264901424083],[38.481942098861786,24.03130807452557],[38.56000757282179,23.868015010531813],[38.57841931498398,23.819386883783906],[38.625808953804764,23.744003974840446],[38.56203884754013,23.71308260175528],[38.509072371131836,23.64835971753592],[38.49687381965233,23.678534586012592],[38.48938331451119,23.679255188782033],[38.49288752183312,23.662688426230044],[38.4841882968531,23.67948640763934],[38.47447337182265,23.710425734885536],[38.479713595201886,23.71995096504906],[38.47302516574119,23.717062761109656],[38.46733296522941,23.72451095885874],[38.462634702447744,23.74009244709789],[38.46378781633047,23.781168617230666],[38.43494018094145,23.811244127565335],[38.40475781388227,23.81654013960478],[38.37448634696127,23.863968961863698],[38.355782761345,23.88008997664542],[38.31164095582944,23.902204494748197],[38.30322529858533,23.920834981848863],[38.28883959693739,23.935607209397606],[38.28342388408753,23.922873144506244],[38.28803112908885,23.919704411673933],[38.281940189959485,23.91787521335931],[38.28861303816925,23.91564230716825],[38.280774245873666,23.916171839557915],[38.28763365512494,23.936039038946745],[38.28446784479521,23.939111519930286],[38.26142847444821,23.94215395500798],[38.26321840530681,23.935023418757925],[38.24907405902263,23.936949304234147],[38.24950425922128,23.93205371310931],[38.25202570576613,23.93149513008511],[38.25399479504838,23.93064053049807],[38.25401529018851,23.929992545774144],[38.248601099610894,23.931462980748854],[38.24772674601834,23.939772081458543],[38.23526425230603,23.94431303451664],[38.23220494715868,23.9390202962394],[38.23629668511172,23.936972916859396],[38.236097891554735,23.936524401817554],[38.22390462589519,23.942928922957922],[38.23201974143497,23.939111927574533],[38.23510659220501,23.944418441871232],[38.2331417096466,23.942435234753756],[38.22601986320701,23.94577888594315],[38.23302248579493,23.942727842727777],[38.22869785611542,23.948839337822577],[38.23658195476594,23.951657794605556],[38.22563052127485,23.952386307856404],[38.2250293262583,23.96121103743792],[38.217551289443506,23.96720816393108],[38.22442087846597,23.960084099190635],[38.224358625431364,23.950656612795708],[38.21856400667434,23.951683015828145],[38.21728530170733,23.957234699810282],[38.21402188371134,23.954541105460013],[38.1897233380927,23.97511842526495],[38.20557188002597,23.97639333194445],[38.18466749405489,23.979859680858272],[38.19215349760644,23.983638820413233],[38.19109978181858,23.994483994153253],[38.18744425018679,23.985098817848687],[38.18443004970803,23.989312764258724],[38.19212275892812,24.00044944793047],[38.17164477115165,23.992241335182143],[38.17015688788484,23.99765515516677],[38.16806689299555,23.99176560138634],[38.15315745452416,24.009904570244583],[38.156198498633,24.014307916297042],[38.150374554170256,24.014773009127605],[38.150123393669624,24.022529804596807],[38.1445555491084,24.02232851863007],[38.13355113961549,24.034438658215585],[38.122639888848084,24.033627257341355],[38.106983927410774,24.053830577251098],[38.098951636183756,24.05776674634943],[38.09681796738073,24.051460517076347],[38.077958577534616,24.06749353662459],[38.08165877751837,24.077078843756887],[38.07051425873468,24.064538711831386],[38.07311189506104,24.058157370746045],[38.06483357972566,24.056564940086542],[38.054460058046864,24.066605001424488],[38.06410462466759,24.07259012781393],[38.07201515928135,24.068115587899463],[38.07534060492704,24.080232550420337],[38.07136432818679,24.082265481472795],[38.066956516631166,24.076244745072337],[38.062694342239176,24.07882064090848],[38.05276174301325,24.073623720516647],[38.047373954845625,24.06613132971586],[38.04098331358601,24.06662767140068],[38.01273785942307,24.08058003403171],[37.97933391925661,24.108137007962423],[37.9607779038017,24.11673290396448],[37.95166500576618,24.124778401455302],[37.957728829317155,24.120839607481386],[37.951335354001955,24.131503407184226],[37.94974098316909,24.12850718857291],[37.931236632837944,24.139948234040382],[37.93964849928088,24.15422515238918],[37.95135014982698,24.1512156687649],[37.95568465389099,24.154433898910558],[37.96057823084537,24.16787270134965],[37.980121156129705,24.162161325250963],[37.98608498239962,24.16557343807069],[37.98071352062494,24.176235181793878],[37.95618787835918,24.171733329711067],[37.949330775185345,24.157955838670397],[37.93778080565051,24.16211327446396],[37.93173250495168,24.171903388299754],[37.93547634343741,24.184316542800218],[37.94299960046322,24.18868990848756],[37.938856439797696,24.191292045583015],[37.94303153633865,24.196338941740915],[37.94016229061695,24.203358072874657],[37.95253201095715,24.209925140341248],[37.93682547861543,24.211732850645696],[37.94027166453692,24.203916385085684],[37.91780957114282,24.202695664786646],[37.91127770886332,24.197910011559596],[37.91106380707857,24.185067520414947],[37.91753530227757,24.18793621591781],[37.93190666043891,24.180675474850275],[37.924084099287434,24.176764832671086],[37.934338379219646,24.158712157846676],[37.930151151790156,24.14728220417466],[37.89537405994996,24.155197431917436],[37.86304758255132,24.151556458398854],[37.8484941532871,24.156953873041726],[37.81395595593971,24.19087270882848],[37.78168963479263,24.208647088535187],[37.77243660763925,24.229757719608656],[37.7609691215207,24.24062825470657],[37.76476898559239,24.24661325466544],[37.75375907492938,24.258784026567984],[37.75478696510839,24.267909553812956],[37.737411165475784,24.25892835287555],[37.71829145899868,24.262117501170774],[37.71447746682497,24.27790037131442],[37.69667734499367,24.280818761746286],[37.697637720815294,24.296176891937158],[37.692700346514876,24.30227442512159],[37.65847454187447,24.297997131161175],[37.64477245135971,24.287642415581796],[37.62983193883734,24.288810858307414],[37.62557456666226,24.297517017240462],[37.61459127466232,24.29509894217593],[37.61242098057291,24.289218386124446],[37.618369911864534,24.274388161965607],[37.62793667296338,24.27233517558507],[37.619966159059665,24.257396427136268],[37.62528506717886,24.25372344747293],[37.61875393683912,24.247431429861013],[37.601850728941635,24.25211441790156],[37.577553369980244,24.246028511473494],[37.56943715560653,24.26372049921404],[37.55955200571804,24.270070443275806],[37.54406633004851,24.27466723608523],[37.52350602974672,24.270189756119635],[37.50342461994428,24.28562151922668],[37.47205614109496,24.341125030729664],[37.4422453501701,24.355227871982848],[37.42528682865294,24.370959325923874],[37.42347672088255,24.394009782504952],[37.432046363734344,24.399586983860484],[37.433755616979624,24.417425140767264],[37.44983519294163,24.40754442114683],[37.45581544687105,24.40890780091912],[37.45981961255186,24.413971843698665],[37.459630957990015,24.437876396543505],[37.434757536748336,24.467719584680246],[37.43296993657281,24.48030528689352],[37.42903305437718,24.477938963423025],[37.4324323594368,24.474439500420072],[37.42681336408065,24.476520550917183],[37.41375014184519,24.51124167715302],[37.40209404121995,24.51595573776267],[37.395615306700954,24.529467674848245],[37.3728839259969,24.54866485417423],[37.36441657072033,24.57300792687001],[37.40098517122858,24.603701179258202],[37.59484689001263,24.70958542185238],[37.629411312207594,24.719466923611602],[37.6354306103563,24.728336575626336],[37.70611454802159,24.770835325087162],[37.75525919836607,24.785977317448637],[37.79782438610655,24.792781128965274],[37.81742070685591,24.802100301639268],[37.84560670791542,24.83137723694376],[37.86609201231622,24.866572447100538],[37.875700951856345,24.89269545110891],[37.871563761533814,24.925551342779745],[37.97837948936991,24.886712461010656],[37.9995430699029,24.886524124805884],[38.023588856776655,24.873117443554793],[38.0787041229542,24.826151486758604],[38.10660585160353,24.780661840425484],[38.12043851540237,24.769159392285708]]]}}]}